start=new Date('2023-06-12T00:00:00.000Z').valueOf();
sats=[{"DECAY_DATE":null,"CLASSIFICATION_TYPE":"U","SEMIMAJOR_AXIS":"6917.887","INCLINATION":"53.2155","TLE_LINE1":"1 51811U 22017AV  23162.68088152  .00000356  00000-0  40458-4 0  9999","ELEMENT_SET_NO":"999","COUNTRY_CODE":"US","APOAPSIS":"540.559","SITE":"AFWTR","REV_AT_EPOCH":"7269","TIME_SYSTEM":"UTC","PERIAPSIS":"538.946","RA_OF_ASC_NODE":"157.3107","MEAN_ANOMALY":"275.2334","ECCENTRICITY":"0.00011660","MEAN_MOTION_DOT":"0.00000356","MEAN_MOTION_DDOT":"0.0000000000000","OBJECT_ID":"2022-017AV","CENTER_NAME":"EARTH","NORAD_CAT_ID":"51811","LAUNCH_DATE":"2022-02-25","RCS_SIZE":"LARGE","OBJECT_NAME":"STARLINK-3569","TLE_LINE2":"2 51811  53.2155 157.3107 0001166  84.8791 275.2334 15.08837705 72698","GP_ID":"233726780","EPHEMERIS_TYPE":"0","EPOCH":"2023-06-11T16:20:28.163328","REF_FRAME":"TEME","OBJECT_TYPE":"PAYLOAD","FILE":"3930737","MEAN_ELEMENT_THEORY":"SGP4","ARG_OF_PERICENTER":"84.8791","BSTAR":"0.00004045800000","PERIOD":"95.438","MEAN_MOTION":"15.08837705"},{"OBJECT_TYPE":"PAYLOAD","MEAN_ELEMENT_THEORY":"SGP4","FILE":"3930737","REF_FRAME":"TEME","EPOCH":"2023-06-11T16:32:23.340192","EPHEMERIS_TYPE":"0","GP_ID":"233726530","OBJECT_NAME":"STARLINK-3610","TLE_LINE2":"2 51812  53.2159 147.2737 0001168  80.1368 279.9756 15.08840969 72810","RCS_SIZE":"LARGE","MEAN_MOTION":"15.08840969","PERIOD":"95.437","ARG_OF_PERICENTER":"80.1368","BSTAR":"0.00004729200000","TIME_SYSTEM":"UTC","SITE":"AFWTR","REV_AT_EPOCH":"7281","APOAPSIS":"540.550","ELEMENT_SET_NO":"999","TLE_LINE1":"1 51812U 22017AW  23162.68915903  .00000465  00000-0  47292-4 0  9997","COUNTRY_CODE":"US","CLASSIFICATION_TYPE":"U","SEMIMAJOR_AXIS":"6917.877","INCLINATION":"53.2159","DECAY_DATE":null,"LAUNCH_DATE":"2022-02-25","NORAD_CAT_ID":"51812","OBJECT_ID":"2022-017AW","CENTER_NAME":"EARTH","MEAN_MOTION_DDOT":"0.0000000000000","MEAN_MOTION_DOT":"0.00000465","ECCENTRICITY":"0.00011680","RA_OF_ASC_NODE":"147.2737","MEAN_ANOMALY":"279.9756","PERIAPSIS":"538.934"},{"LAUNCH_DATE":"2022-02-25","NORAD_CAT_ID":"51813","CENTER_NAME":"EARTH","OBJECT_ID":"2022-017AX","MEAN_MOTION_DDOT":"0.0000000000000","MEAN_MOTION_DOT":"0.00000605","ECCENTRICITY":"0.00009170","MEAN_ANOMALY":"279.7834","RA_OF_ASC_NODE":"147.3895","PERIAPSIS":"539.119","TIME_SYSTEM":"UTC","REV_AT_EPOCH":"7281","SITE":"AFWTR","APOAPSIS":"540.387","COUNTRY_CODE":"US","ELEMENT_SET_NO":"999","TLE_LINE1":"1 51813U 22017AX  23162.67076516  .00000605  00000-0  56089-4 0  9995","INCLINATION":"53.2170","SEMIMAJOR_AXIS":"6917.888","CLASSIFICATION_TYPE":"U","DECAY_DATE":null,"MEAN_MOTION":"15.08837504","PERIOD":"95.438","BSTAR":"0.00005608900000","ARG_OF_PERICENTER":"80.3262","FILE":"3930737","MEAN_ELEMENT_THEORY":"SGP4","OBJECT_TYPE":"PAYLOAD","REF_FRAME":"TEME","EPOCH":"2023-06-11T16:05:54.109824","EPHEMERIS_TYPE":"0","GP_ID":"233727278","OBJECT_NAME":"STARLINK-3552","TLE_LINE2":"2 51813  53.2170 147.3895 0000917  80.3262 279.7834 15.08837504 72812","RCS_SIZE":"LARGE"},{"APOAPSIS":"540.395","TLE_LINE1":"1 51814U 22017AY  23162.68179970  .00000884  00000-0  73619-4 0  9992","ELEMENT_SET_NO":"999","COUNTRY_CODE":"US","CLASSIFICATION_TYPE":"U","SEMIMAJOR_AXIS":"6917.878","INCLINATION":"53.2166","DECAY_DATE":null,"TIME_SYSTEM":"UTC","SITE":"AFWTR","REV_AT_EPOCH":"7281","MEAN_MOTION_DOT":"0.00000884","ECCENTRICITY":"0.00009430","RA_OF_ASC_NODE":"147.3065","MEAN_ANOMALY":"280.8537","PERIAPSIS":"539.091","LAUNCH_DATE":"2022-02-25","NORAD_CAT_ID":"51814","OBJECT_ID":"2022-017AY","CENTER_NAME":"EARTH","MEAN_MOTION_DDOT":"0.0000000000000","GP_ID":"233728028","OBJECT_NAME":"STARLINK-3599","TLE_LINE2":"2 51814  53.2166 147.3065 0000943  79.2561 280.8537 15.08840794 72813","RCS_SIZE":"LARGE","OBJECT_TYPE":"PAYLOAD","FILE":"3930737","MEAN_ELEMENT_THEORY":"SGP4","REF_FRAME":"TEME","EPOCH":"2023-06-11T16:21:47.494080","EPHEMERIS_TYPE":"0","ARG_OF_PERICENTER":"79.2561","BSTAR":"0.00007361900000","MEAN_MOTION":"15.08840794","PERIOD":"95.438"},{"SITE":"AFWTR","REV_AT_EPOCH":"7281","TIME_SYSTEM":"UTC","DECAY_DATE":null,"CLASSIFICATION_TYPE":"U","SEMIMAJOR_AXIS":"6917.877","INCLINATION":"53.2166","TLE_LINE1":"1 51815U 22017AZ  23162.68548183  .00000921  00000-0  75954-4 0  9995","ELEMENT_SET_NO":"999","COUNTRY_CODE":"US","APOAPSIS":"540.579","MEAN_MOTION_DDOT":"0.0000000000000","OBJECT_ID":"2022-017AZ","CENTER_NAME":"EARTH","NORAD_CAT_ID":"51815","LAUNCH_DATE":"2022-02-25","PERIAPSIS":"538.904","RA_OF_ASC_NODE":"147.2899","MEAN_ANOMALY":"276.8580","ECCENTRICITY":"0.00012110","MEAN_MOTION_DOT":"0.00000921","EPHEMERIS_TYPE":"0","EPOCH":"2023-06-11T16:27:05.630112","REF_FRAME":"TEME","OBJECT_TYPE":"PAYLOAD","MEAN_ELEMENT_THEORY":"SGP4","FILE":"3930737","RCS_SIZE":"LARGE","OBJECT_NAME":"STARLINK-3604","TLE_LINE2":"2 51815  53.2166 147.2899 0001211  83.2550 276.8580 15.08841237 72816","GP_ID":"233726280","PERIOD":"95.437","MEAN_MOTION":"15.08841237","ARG_OF_PERICENTER":"83.2550","BSTAR":"0.00007595400000"},{"PERIOD":"95.438","MEAN_MOTION":"15.08839723","BSTAR":"0.00007158100000","ARG_OF_PERICENTER":"86.3370","EPHEMERIS_TYPE":"0","EPOCH":"2023-06-11T16:16:29.680320","REF_FRAME":"TEME","MEAN_ELEMENT_THEORY":"SGP4","FILE":"3930737","OBJECT_TYPE":"PAYLOAD","RCS_SIZE":"MEDIUM","OBJECT_NAME":"STARLINK-3603","TLE_LINE2":"2 51816  53.2160 147.3258 0001139  86.3370 273.7752 15.08839723 72863","GP_ID":"233727031","MEAN_MOTION_DDOT":"0.0000000000000","CENTER_NAME":"EARTH","OBJECT_ID":"2022-017BA","NORAD_CAT_ID":"51816","LAUNCH_DATE":"2022-02-25","PERIAPSIS":"538.958","MEAN_ANOMALY":"273.7752","RA_OF_ASC_NODE":"147.3258","ECCENTRICITY":"0.00011390","MEAN_MOTION_DOT":"0.00000852","REV_AT_EPOCH":"7286","SITE":"AFWTR","TIME_SYSTEM":"UTC","DECAY_DATE":null,"INCLINATION":"53.2160","SEMIMAJOR_AXIS":"6917.881","CLASSIFICATION_TYPE":"U","COUNTRY_CODE":"US","ELEMENT_SET_NO":"999","TLE_LINE1":"1 51816U 22017BA  23162.67812130  .00000852  00000-0  71581-4 0  9996","APOAPSIS":"540.534"},{"REF_FRAME":"TEME","OBJECT_TYPE":"PAYLOAD","MEAN_ELEMENT_THEORY":"SGP4","FILE":"3930737","EPHEMERIS_TYPE":"0","EPOCH":"2023-06-11T13:46:47.264160","TLE_LINE2":"2 51852  53.2157 197.7928 0001244  88.3069 271.8066 15.08844469 70471","OBJECT_NAME":"STARLINK-3542","GP_ID":"233728032","RCS_SIZE":"LARGE","MEAN_MOTION":"15.08844469","PERIOD":"95.437","ARG_OF_PERICENTER":"88.3069","BSTAR":"0.00009332100000","TIME_SYSTEM":"UTC","SITE":"AFETR","REV_AT_EPOCH":"7047","ELEMENT_SET_NO":"999","TLE_LINE1":"1 51852U 22022A   23162.57415815  .00001198  00000-0  93321-4 0  9990","COUNTRY_CODE":"US","APOAPSIS":"540.592","DECAY_DATE":null,"CLASSIFICATION_TYPE":"U","SEMIMAJOR_AXIS":"6917.867","INCLINATION":"53.2157","NORAD_CAT_ID":"51852","LAUNCH_DATE":"2022-03-03","MEAN_MOTION_DDOT":"0.0000000000000","OBJECT_ID":"2022-022A","CENTER_NAME":"EARTH","ECCENTRICITY":"0.00012440","MEAN_MOTION_DOT":"0.00001198","PERIAPSIS":"538.871","RA_OF_ASC_NODE":"197.7928","MEAN_ANOMALY":"271.8066"},{"APOAPSIS":"540.390","COUNTRY_CODE":"US","ELEMENT_SET_NO":"999","TLE_LINE1":"1 51853U 22022B   23162.51255801  .00000456  00000-0  46737-4 0  9997","INCLINATION":"53.2158","SEMIMAJOR_AXIS":"6917.877","CLASSIFICATION_TYPE":"U","DECAY_DATE":null,"TIME_SYSTEM":"UTC","REV_AT_EPOCH":"7166","SITE":"AFETR","MEAN_MOTION_DOT":"0.00000456","ECCENTRICITY":"0.00009370","MEAN_ANOMALY":"268.8246","RA_OF_ASC_NODE":"198.0779","PERIAPSIS":"539.094","LAUNCH_DATE":"2022-03-03","NORAD_CAT_ID":"51853","CENTER_NAME":"EARTH","OBJECT_ID":"2022-022B","MEAN_MOTION_DDOT":"0.0000000000000","GP_ID":"233694886","TLE_LINE2":"2 51853  53.2158 198.0779 0000937  91.2853 268.8246 15.08841067 71662","OBJECT_NAME":"STARLINK-3539","RCS_SIZE":"LARGE","FILE":"3930529","MEAN_ELEMENT_THEORY":"SGP4","OBJECT_TYPE":"PAYLOAD","REF_FRAME":"TEME","EPOCH":"2023-06-11T12:18:05.012064","EPHEMERIS_TYPE":"0","BSTAR":"0.00004673700000","ARG_OF_PERICENTER":"91.2853","MEAN_MOTION":"15.08841067","PERIOD":"95.437"},{"EPHEMERIS_TYPE":"0","EPOCH":"2023-06-11T12:06:06.469920","REF_FRAME":"TEME","FILE":"3930529","MEAN_ELEMENT_THEORY":"SGP4","OBJECT_TYPE":"PAYLOAD","RCS_SIZE":"LARGE","TLE_LINE2":"2 51854  53.2154 198.1056 0000856  90.7916 269.3175 15.08839022 71724","OBJECT_NAME":"STARLINK-3541","GP_ID":"233694637","PERIOD":"95.438","MEAN_MOTION":"15.08839022","BSTAR":"0.00000997740000","ARG_OF_PERICENTER":"90.7916","REV_AT_EPOCH":"7172","SITE":"AFETR","TIME_SYSTEM":"UTC","DECAY_DATE":null,"INCLINATION":"53.2154","SEMIMAJOR_AXIS":"6917.883","CLASSIFICATION_TYPE":"U","COUNTRY_CODE":"US","TLE_LINE1":"1 51854U 22022C   23162.50424155 -.00000129  00000-0  99774-5 0  9995","ELEMENT_SET_NO":"999","APOAPSIS":"540.341","MEAN_MOTION_DDOT":"0.0000000000000","CENTER_NAME":"EARTH","OBJECT_ID":"2022-022C","NORAD_CAT_ID":"51854","LAUNCH_DATE":"2022-03-03","PERIAPSIS":"539.156","MEAN_ANOMALY":"269.3175","RA_OF_ASC_NODE":"198.1056","ECCENTRICITY":"0.00008560","MEAN_MOTION_DOT":"-0.00000129"},{"BSTAR":"0.00003745100000","ARG_OF_PERICENTER":"355.3323","PERIOD":"95.437","MEAN_MOTION":"15.08846287","RCS_SIZE":"LARGE","OBJECT_NAME":"STARLINK-3545","TLE_LINE2":"2 51855  53.2164 196.6525 0007302 355.3323   4.7599 15.08846287 71727","GP_ID":"233727783","EPHEMERIS_TYPE":"0","EPOCH":"2023-06-11T19:48:29.814912","REF_FRAME":"TEME","FILE":"3930737","MEAN_ELEMENT_THEORY":"SGP4","OBJECT_TYPE":"PAYLOAD","PERIAPSIS":"534.675","MEAN_ANOMALY":"4.7599","RA_OF_ASC_NODE":"196.6525","ECCENTRICITY":"0.00073020","MEAN_MOTION_DOT":"0.00000306","MEAN_MOTION_DDOT":"0.0000000000000","CENTER_NAME":"EARTH","OBJECT_ID":"2022-022D","NORAD_CAT_ID":"51855","LAUNCH_DATE":"2022-03-03","DECAY_DATE":null,"INCLINATION":"53.2164","CLASSIFICATION_TYPE":"U","SEMIMAJOR_AXIS":"6917.861","COUNTRY_CODE":"US","ELEMENT_SET_NO":"999","TLE_LINE1":"1 51855U 22022D   23162.82534508  .00000306  00000-0  37451-4 0  9994","APOAPSIS":"544.778","REV_AT_EPOCH":"7172","SITE":"AFETR","TIME_SYSTEM":"UTC"}];
